[{"OBJECT_NAME":"ITAMSAT (IO-26)","OBJECT_ID":"1993-061D","EPOCH":"2026-03-09T18:51:40.558176","MEAN_MOTION":14.31337175,"ECCENTRICITY":0.00091856,"INCLINATION":98.6929,"RA_OF_ASC_NODE":136.1036,"ARG_OF_PERICENTER":22.8845,"MEAN_ANOMALY":337.2746,"EPHEMERIS_TYPE":0,"CLASSIFICATION_TYPE":"U","NORAD_CAT_ID":22826,"ELEMENT_SET_NO":999,"REV_AT_EPOCH":69309,"BSTAR":7.3937292e-5,"MEAN_MOTION_DOT":1.51e-6,"MEAN_MOTION_DDOT":0},{"OBJECT_NAME":"THOR ABLESTAR DEB","OBJECT_ID":"1961-015L","EPOCH":"2026-03-09T22:41:08.529504","MEAN_MOTION":14.44590967,"ECCENTRICITY":0.00637946,"INCLINATION":66.7119,"RA_OF_ASC_NODE":359.5905,"ARG_OF_PERICENTER":323.9394,"MEAN_ANOMALY":35.7416,"EPHEMERIS_TYPE":0,"CLASSIFICATION_TYPE":"U","NORAD_CAT_ID":126,"ELEMENT_SET_NO":999,"REV_AT_EPOCH":35026,"BSTAR":0.00081249246,"MEAN_MOTION_DOT":2.796e-5,"MEAN_MOTION_DDOT":0}]
